start=new Date('2022-02-20T00:00:00.000Z').valueOf();
sats=[{"ELEMENT_SET_NO":"999","ARG_OF_PERICENTER":"72.7922","EPOCH":"2022-02-19T16:48:51.455520","MEAN_MOTION_DOT":"-0.00000563","APOAPSIS":"547.984","CENTER_NAME":"EARTH","BSTAR":"-0.00001889400000","INCLINATION":"53.0542","PERIAPSIS":"546.409","MEAN_MOTION":"15.06405530","TLE_LINE1":"1 46355U 20062AG  22050.70059555 -.00000563  00000-0 -18894-4 0  9998","OBJECT_ID":"2020-062AG","MEAN_ANOMALY":"287.3191","OBJECT_NAME":"STARLINK-1661","COUNTRY_CODE":"US","RA_OF_ASC_NODE":"176.0582","EPHEMERIS_TYPE":"0","LAUNCH_DATE":"2020-09-03","TIME_SYSTEM":"UTC","MEAN_ELEMENT_THEORY":"SGP4","NORAD_CAT_ID":"46355","PERIOD":"95.592","GP_ID":"196428187","RCS_SIZE":"LARGE","FILE":"3308986","TLE_LINE2":"2 46355  53.0542 176.0582 0001137  72.7922 287.3191 15.06405530 81395","REF_FRAME":"TEME","CLASSIFICATION_TYPE":"U","SITE":"AFETR","OBJECT_TYPE":"PAYLOAD","MEAN_MOTION_DDOT":"0.0000000000000","DECAY_DATE":null,"ECCENTRICITY":"0.00011370","SEMIMAJOR_AXIS":"6925.332","REV_AT_EPOCH":"8139"},{"EPHEMERIS_TYPE":"0","TIME_SYSTEM":"UTC","LAUNCH_DATE":"2020-09-03","RA_OF_ASC_NODE":"175.4103","COUNTRY_CODE":"US","OBJECT_NAME":"STARLINK-1665","OBJECT_ID":"2020-062AH","MEAN_ANOMALY":"293.8753","PERIAPSIS":"546.089","BSTAR":"0.00009175700000","INCLINATION":"53.0527","MEAN_MOTION":"15.06396923","TLE_LINE1":"1 46356U 20062AH  22050.84435750  .00001085  00000-0  91757-4 0  9996","APOAPSIS":"548.357","CENTER_NAME":"EARTH","MEAN_MOTION_DOT":"0.00001085","EPOCH":"2022-02-19T20:15:52.488000","ELEMENT_SET_NO":"999","ARG_OF_PERICENTER":"66.2407","SEMIMAJOR_AXIS":"6925.358","REV_AT_EPOCH":"8141","ECCENTRICITY":"0.00016380","DECAY_DATE":null,"OBJECT_TYPE":"PAYLOAD","MEAN_MOTION_DDOT":"0.0000000000000","CLASSIFICATION_TYPE":"U","REF_FRAME":"TEME","SITE":"AFETR","TLE_LINE2":"2 46356  53.0527 175.4103 0001638  66.2407 293.8753 15.06396923 81417","RCS_SIZE":"LARGE","FILE":"3308986","PERIOD":"95.592","GP_ID":"196426938","NORAD_CAT_ID":"46356","MEAN_ELEMENT_THEORY":"SGP4"},{"REV_AT_EPOCH":"8167","SEMIMAJOR_AXIS":"6925.321","ECCENTRICITY":"0.00015560","DECAY_DATE":null,"MEAN_MOTION_DDOT":"0.0000000000000","OBJECT_TYPE":"PAYLOAD","SITE":"AFETR","REF_FRAME":"TEME","CLASSIFICATION_TYPE":"U","TLE_LINE2":"2 46357  53.0532 156.0223 0001556  57.0457 303.0681 15.06408885 81677","FILE":"3308986","RCS_SIZE":"LARGE","GP_ID":"196427186","PERIOD":"95.592","MEAN_ELEMENT_THEORY":"SGP4","NORAD_CAT_ID":"46357","TIME_SYSTEM":"UTC","LAUNCH_DATE":"2020-09-03","EPHEMERIS_TYPE":"0","RA_OF_ASC_NODE":"156.0223","COUNTRY_CODE":"US","OBJECT_NAME":"STARLINK-1666","MEAN_ANOMALY":"303.0681","OBJECT_ID":"2020-062AJ","MEAN_MOTION":"15.06408885","TLE_LINE1":"1 46357U 20062AJ  22050.70980877 -.00000397  00000-0 -77408-5 0  9992","PERIAPSIS":"546.109","INCLINATION":"53.0532","BSTAR":"-0.00000774080000","CENTER_NAME":"EARTH","APOAPSIS":"548.264","MEAN_MOTION_DOT":"-0.00000397","EPOCH":"2022-02-19T17:02:07.477728","ARG_OF_PERICENTER":"57.0457","ELEMENT_SET_NO":"999"},{"MEAN_MOTION_DDOT":"0.0000000000000","OBJECT_TYPE":"PAYLOAD","SITE":"AFETR","CLASSIFICATION_TYPE":"U","REF_FRAME":"TEME","REV_AT_EPOCH":"8140","SEMIMAJOR_AXIS":"6925.332","DECAY_DATE":null,"ECCENTRICITY":"0.00014920","GP_ID":"196426180","PERIOD":"95.592","NORAD_CAT_ID":"46358","MEAN_ELEMENT_THEORY":"SGP4","TLE_LINE2":"2 46358  53.0537 175.8004 0001492  64.1781 295.9361 15.06405365 81402","FILE":"3308986","RCS_SIZE":"LARGE","MEAN_ANOMALY":"295.9361","OBJECT_ID":"2020-062AK","OBJECT_NAME":"STARLINK-1690","TLE_LINE1":"1 46358U 20062AK  22050.75588264 -.00000460  00000-0 -12012-4 0  9992","MEAN_MOTION":"15.06405365","BSTAR":"-0.00001201200000","INCLINATION":"53.0537","PERIAPSIS":"546.164","TIME_SYSTEM":"UTC","LAUNCH_DATE":"2020-09-03","EPHEMERIS_TYPE":"0","COUNTRY_CODE":"US","RA_OF_ASC_NODE":"175.8004","EPOCH":"2022-02-19T18:08:28.260096","MEAN_MOTION_DOT":"-0.00000460","ARG_OF_PERICENTER":"64.1781","ELEMENT_SET_NO":"999","CENTER_NAME":"EARTH","APOAPSIS":"548.230"},{"CENTER_NAME":"EARTH","APOAPSIS":"548.403","ARG_OF_PERICENTER":"48.3218","ELEMENT_SET_NO":"999","EPOCH":"2022-02-19T12:53:21.571872","MEAN_MOTION_DOT":"0.00000147","COUNTRY_CODE":"US","RA_OF_ASC_NODE":"131.7979","LAUNCH_DATE":"2020-09-03","TIME_SYSTEM":"UTC","EPHEMERIS_TYPE":"0","TLE_LINE1":"1 46359U 20062AL  22050.53705523  .00000147  00000-0  28755-4 0  9999","MEAN_MOTION":"15.06391159","INCLINATION":"53.0546","BSTAR":"0.00002875500000","PERIAPSIS":"546.078","OBJECT_ID":"2020-062AL","MEAN_ANOMALY":"311.7915","OBJECT_NAME":"STARLINK-1707","FILE":"3308480","RCS_SIZE":"LARGE","TLE_LINE2":"2 46359  53.0546 131.7979 0001679  48.3218 311.7915 15.06391159 81992","NORAD_CAT_ID":"46359","MEAN_ELEMENT_THEORY":"SGP4","GP_ID":"196390377","PERIOD":"95.593","DECAY_DATE":null,"ECCENTRICITY":"0.00016790","REV_AT_EPOCH":"8199","SEMIMAJOR_AXIS":"6925.376","SITE":"AFETR","REF_FRAME":"TEME","CLASSIFICATION_TYPE":"U","MEAN_MOTION_DDOT":"0.0000000000000","OBJECT_TYPE":"PAYLOAD"},{"SITE":"AFETR","REF_FRAME":"TEME","CLASSIFICATION_TYPE":"U","MEAN_MOTION_DDOT":"0.0000000000000","OBJECT_TYPE":"PAYLOAD","ECCENTRICITY":"0.00015800","DECAY_DATE":null,"REV_AT_EPOCH":"8202","SEMIMAJOR_AXIS":"6925.361","NORAD_CAT_ID":"46360","MEAN_ELEMENT_THEORY":"SGP4","GP_ID":"196427439","PERIOD":"95.592","FILE":"3308986","RCS_SIZE":"LARGE","TLE_LINE2":"2 46360  53.0534 131.1041 0001580  57.2631 302.8510 15.06395859 82022","TLE_LINE1":"1 46360U 20062AM  22050.69185183 -.00002258  00000-0 -13277-3 0  9991","MEAN_MOTION":"15.06395859","PERIAPSIS":"546.132","BSTAR":"-0.00013277000000","INCLINATION":"53.0534","OBJECT_NAME":"STARLINK-1713","OBJECT_ID":"2020-062AM","MEAN_ANOMALY":"302.8510","RA_OF_ASC_NODE":"131.1041","COUNTRY_CODE":"US","LAUNCH_DATE":"2020-09-03","TIME_SYSTEM":"UTC","EPHEMERIS_TYPE":"0","ELEMENT_SET_NO":"999","ARG_OF_PERICENTER":"57.2631","MEAN_MOTION_DOT":"-0.00002258","EPOCH":"2022-02-19T16:36:15.998112","CENTER_NAME":"EARTH","APOAPSIS":"548.320"},{"FILE":"3308986","RCS_SIZE":"LARGE","TLE_LINE2":"2 46361  53.0550 130.9441 0001503  66.9104 293.2043 15.06395566 82028","NORAD_CAT_ID":"46361","MEAN_ELEMENT_THEORY":"SGP4","GP_ID":"196427687","PERIOD":"95.592","ECCENTRICITY":"0.00015030","DECAY_DATE":null,"REV_AT_EPOCH":"8202","SEMIMAJOR_AXIS":"6925.362","SITE":"AFETR","CLASSIFICATION_TYPE":"U","REF_FRAME":"TEME","MEAN_MOTION_DDOT":"0.0000000000000","OBJECT_TYPE":"PAYLOAD","CENTER_NAME":"EARTH","APOAPSIS":"548.268","ARG_OF_PERICENTER":"66.9104","ELEMENT_SET_NO":"999","MEAN_MOTION_DOT":"0.00000402","EPOCH":"2022-02-19T17:29:21.610176","RA_OF_ASC_NODE":"130.9441","COUNTRY_CODE":"US","LAUNCH_DATE":"2020-09-03","TIME_SYSTEM":"UTC","EPHEMERIS_TYPE":"0","TLE_LINE1":"1 46361U 20062AN  22050.72872234  .00000402  00000-0  45861-4 0  9998","MEAN_MOTION":"15.06395566","PERIAPSIS":"546.186","BSTAR":"0.00004586100000","INCLINATION":"53.0550","OBJECT_NAME":"STARLINK-1722","MEAN_ANOMALY":"293.2043","OBJECT_ID":"2020-062AN"},{"APOAPSIS":"548.242","CENTER_NAME":"EARTH","ELEMENT_SET_NO":"999","ARG_OF_PERICENTER":"62.7903","MEAN_MOTION_DOT":"-0.00002196","EPOCH":"2022-02-19T21:44:06.379296","RA_OF_ASC_NODE":"130.1290","COUNTRY_CODE":"US","EPHEMERIS_TYPE":"0","LAUNCH_DATE":"2020-09-03","TIME_SYSTEM":"UTC","PERIAPSIS":"546.197","INCLINATION":"53.0545","BSTAR":"-0.00012858000000","MEAN_MOTION":"15.06398037","TLE_LINE1":"1 46362U 20062AP  22050.90562939 -.00002196  00000-0 -12858-3 0  9990","OBJECT_NAME":"STARLINK-1726","OBJECT_ID":"2020-062AP","MEAN_ANOMALY":"297.3236","RCS_SIZE":"LARGE","FILE":"3308986","TLE_LINE2":"2 46362  53.0545 130.1290 0001476  62.7903 297.3236 15.06398037 82055","NORAD_CAT_ID":"46362","MEAN_ELEMENT_THEORY":"SGP4","PERIOD":"95.592","GP_ID":"196426681","ECCENTRICITY":"0.00014760","DECAY_DATE":null,"SEMIMAJOR_AXIS":"6925.355","REV_AT_EPOCH":"8205","REF_FRAME":"TEME","CLASSIFICATION_TYPE":"U","SITE":"AFETR","OBJECT_TYPE":"PAYLOAD","MEAN_MOTION_DDOT":"0.0000000000000"},{"COUNTRY_CODE":"US","RA_OF_ASC_NODE":"131.0576","EPHEMERIS_TYPE":"0","TIME_SYSTEM":"UTC","LAUNCH_DATE":"2020-09-03","INCLINATION":"53.0528","BSTAR":"0.00025457000000","PERIAPSIS":"546.152","MEAN_MOTION":"15.06410543","TLE_LINE1":"1 46363U 20062AQ  22050.69921948  .00003513  00000-0  25457-3 0  9997","MEAN_ANOMALY":"306.1408","OBJECT_ID":"2020-062AQ","OBJECT_NAME":"STARLINK-1739","APOAPSIS":"548.210","CENTER_NAME":"EARTH","ARG_OF_PERICENTER":"53.9719","ELEMENT_SET_NO":"999","EPOCH":"2022-02-19T16:46:52.563072","MEAN_MOTION_DOT":"0.00003513","DECAY_DATE":null,"ECCENTRICITY":"0.00014860","SEMIMAJOR_AXIS":"6925.316","REV_AT_EPOCH":"8202","CLASSIFICATION_TYPE":"U","REF_FRAME":"TEME","SITE":"AFETR","OBJECT_TYPE":"PAYLOAD","MEAN_MOTION_DDOT":"0.0000000000000","RCS_SIZE":"LARGE","FILE":"3308986","TLE_LINE2":"2 46363  53.0528 131.0576 0001486  53.9719 306.1408 15.06410543 82026","NORAD_CAT_ID":"46363","MEAN_ELEMENT_THEORY":"SGP4","PERIOD":"95.591","GP_ID":"196428188"},{"MEAN_MOTION":"15.06393855","TLE_LINE1":"1 46364U 20062AR  22050.85495171 -.00000140  00000-0  96537-5 0  9993","PERIAPSIS":"542.503","INCLINATION":"53.0509","BSTAR":"0.00000965370000","OBJECT_NAME":"STARLINK-1763","OBJECT_ID":"2020-062AR","MEAN_ANOMALY":"290.0001","RA_OF_ASC_NODE":"110.4359","COUNTRY_CODE":"US","TIME_SYSTEM":"UTC","LAUNCH_DATE":"2020-09-03","EPHEMERIS_TYPE":"0","ARG_OF_PERICENTER":"70.1723","ELEMENT_SET_NO":"999","MEAN_MOTION_DOT":"-0.00000140","EPOCH":"2022-02-19T20:31:07.827744","CENTER_NAME":"EARTH","APOAPSIS":"551.962","SITE":"AFETR","REF_FRAME":"TEME","CLASSIFICATION_TYPE":"U","MEAN_MOTION_DDOT":"0.0000000000000","OBJECT_TYPE":"PAYLOAD","ECCENTRICITY":"0.00068290","DECAY_DATE":null,"REV_AT_EPOCH":"8250","SEMIMAJOR_AXIS":"6925.367","MEAN_ELEMENT_THEORY":"SGP4","NORAD_CAT_ID":"46364","GP_ID":"196398188","PERIOD":"95.593","FILE":"3308624","RCS_SIZE":"LARGE","TLE_LINE2":"2 46364  53.0509 110.4359 0006829  70.1723 290.0001 15.06393855 82507"}];
